[{"OBJECT_NAME":"STARLINK-36934","OBJECT_ID":"2026-055T","EPOCH":"2026-03-28T14:00:01.999872","MEAN_MOTION":15.97469936,"ECCENTRICITY":8.82e-5,"INCLINATION":53.1578,"RA_OF_ASC_NODE":242.8576,"ARG_OF_PERICENTER":68.7184,"MEAN_ANOMALY":28.6617,"EPHEMERIS_TYPE":0,"CLASSIFICATION_TYPE":"U","NORAD_CAT_ID":68279,"ELEMENT_SET_NO":999,"REV_AT_EPOCH":267,"BSTAR":-0.0027803618,"MEAN_MOTION_DOT":-0.01264672,"MEAN_MOTION_DDOT":0.0004951718},{"OBJECT_NAME":"STARLINK-37070","OBJECT_ID":"2026-055U","EPOCH":"2026-03-28T14:00:01.999872","MEAN_MOTION":15.97829778,"ECCENTRICITY":8.384e-5,"INCLINATION":53.158,"RA_OF_ASC_NODE":242.8366,"ARG_OF_PERICENTER":76.15,"MEAN_ANOMALY":31.2047,"EPHEMERIS_TYPE":0,"CLASSIFICATION_TYPE":"U","NORAD_CAT_ID":68280,"ELEMENT_SET_NO":999,"REV_AT_EPOCH":267,"BSTAR":-0.0027473534,"MEAN_MOTION_DOT":-0.01274749,"MEAN_MOTION_DDOT":0.00050426997},{"OBJECT_NAME":"STARLINK-37134","OBJECT_ID":"2026-055V","EPOCH":"2026-03-28T14:00:01.999872","MEAN_MOTION":15.98075737,"ECCENTRICITY":8.085e-5,"INCLINATION":53.1576,"RA_OF_ASC_NODE":242.8227,"ARG_OF_PERICENTER":72.9895,"MEAN_ANOMALY":41.1194,"EPHEMERIS_TYPE":0,"CLASSIFICATION_TYPE":"U","NORAD_CAT_ID":68281,"ELEMENT_SET_NO":999,"REV_AT_EPOCH":267,"BSTAR":-0.0027079955,"MEAN_MOTION_DOT":-0.01273839,"MEAN_MOTION_DDOT":0.00050491489},{"OBJECT_NAME":"STARLINK-37160","OBJECT_ID":"2026-055W","EPOCH":"2026-03-28T14:00:01.999872","MEAN_MOTION":15.97955024,"ECCENTRICITY":8.123e-5,"INCLINATION":53.1578,"RA_OF_ASC_NODE":242.83,"ARG_OF_PERICENTER":71.5851,"MEAN_ANOMALY":39.3045,"EPHEMERIS_TYPE":0,"CLASSIFICATION_TYPE":"U","NORAD_CAT_ID":68282,"ELEMENT_SET_NO":999,"REV_AT_EPOCH":267,"BSTAR":-0.0027275721,"MEAN_MOTION_DOT":-0.0127443,"MEAN_MOTION_DDOT":0.00050470215},{"OBJECT_NAME":"STARLINK-37124","OBJECT_ID":"2026-055X","EPOCH":"2026-03-28T14:00:01.999872","MEAN_MOTION":15.98189182,"ECCENTRICITY":8.103e-5,"INCLINATION":53.1577,"RA_OF_ASC_NODE":242.8173,"ARG_OF_PERICENTER":80.904,"MEAN_ANOMALY":36.013,"EPHEMERIS_TYPE":0,"CLASSIFICATION_TYPE":"U","NORAD_CAT_ID":68283,"ELEMENT_SET_NO":999,"REV_AT_EPOCH":267,"BSTAR":-0.0026851378,"MEAN_MOTION_DOT":-0.01271149,"MEAN_MOTION_DDOT":0.00050357573},{"OBJECT_NAME":"STARLINK-37159","OBJECT_ID":"2026-055Y","EPOCH":"2026-03-28T14:00:01.999872","MEAN_MOTION":15.98317279,"ECCENTRICITY":8.687e-5,"INCLINATION":53.1578,"RA_OF_ASC_NODE":242.8099,"ARG_OF_PERICENTER":88.0761,"MEAN_ANOMALY":32.2795,"EPHEMERIS_TYPE":0,"CLASSIFICATION_TYPE":"U","NORAD_CAT_ID":68284,"ELEMENT_SET_NO":999,"REV_AT_EPOCH":267,"BSTAR":-0.0026591861,"MEAN_MOTION_DOT":-0.01267964,"MEAN_MOTION_DDOT":0.00050195704},{"OBJECT_NAME":"STARLINK-36725","OBJECT_ID":"2026-055Z","EPOCH":"2026-03-28T14:00:01.999872","MEAN_MOTION":15.98430833,"ECCENTRICITY":8.796e-5,"INCLINATION":53.1574,"RA_OF_ASC_NODE":242.8038,"ARG_OF_PERICENTER":68.0674,"MEAN_ANOMALY":55.0463,"EPHEMERIS_TYPE":0,"CLASSIFICATION_TYPE":"U","NORAD_CAT_ID":68285,"ELEMENT_SET_NO":999,"REV_AT_EPOCH":267,"BSTAR":-0.0026363116,"MEAN_MOTION_DOT":-0.01265117,"MEAN_MOTION_DDOT":0.00050050559},{"OBJECT_NAME":"STARLINK-36998","OBJECT_ID":"2026-055AA","EPOCH":"2026-03-28T14:00:01.999872","MEAN_MOTION":15.98703808,"ECCENTRICITY":8.544e-5,"INCLINATION":53.1582,"RA_OF_ASC_NODE":242.7908,"ARG_OF_PERICENTER":76.7497,"MEAN_ANOMALY":53.2359,"EPHEMERIS_TYPE":0,"CLASSIFICATION_TYPE":"U","NORAD_CAT_ID":68286,"ELEMENT_SET_NO":999,"REV_AT_EPOCH":267,"BSTAR":-0.0026059944,"MEAN_MOTION_DOT":-0.01269827,"MEAN_MOTION_DDOT":0.00050536078},{"OBJECT_NAME":"STARLINK-37165","OBJECT_ID":"2026-055AB","EPOCH":"2026-03-28T14:00:01.999872","MEAN_MOTION":15.98837283,"ECCENTRICITY":8.185e-5,"INCLINATION":53.1578,"RA_OF_ASC_NODE":242.7828,"ARG_OF_PERICENTER":67.8748,"MEAN_ANOMALY":65.2995,"EPHEMERIS_TYPE":0,"CLASSIFICATION_TYPE":"U","NORAD_CAT_ID":68287,"ELEMENT_SET_NO":999,"REV_AT_EPOCH":267,"BSTAR":-0.0025867002,"MEAN_MOTION_DOT":-0.0126993,"MEAN_MOTION_DDOT":0.00050615086},{"OBJECT_NAME":"STARLINK-37016","OBJECT_ID":"2026-055AC","EPOCH":"2026-03-28T14:00:01.999872","MEAN_MOTION":15.98558966,"ECCENTRICITY":8.313e-5,"INCLINATION":53.1576,"RA_OF_ASC_NODE":242.7972,"ARG_OF_PERICENTER":67.0046,"MEAN_ANOMALY":59.3467,"EPHEMERIS_TYPE":0,"CLASSIFICATION_TYPE":"U","NORAD_CAT_ID":68288,"ELEMENT_SET_NO":999,"REV_AT_EPOCH":267,"BSTAR":-0.0026148561,"MEAN_MOTION_DOT":-0.01263885,"MEAN_MOTION_DDOT":0.00050029522},{"OBJECT_NAME":"STARLINK-37010","OBJECT_ID":"2026-055AD","EPOCH":"2026-03-28T14:00:01.999872","MEAN_MOTION":15.98957819,"ECCENTRICITY":8.756e-5,"INCLINATION":53.158,"RA_OF_ASC_NODE":242.7764,"ARG_OF_PERICENTER":72.6314,"MEAN_ANOMALY":63.3566,"EPHEMERIS_TYPE":0,"CLASSIFICATION_TYPE":"U","NORAD_CAT_ID":68289,"ELEMENT_SET_NO":999,"REV_AT_EPOCH":267,"BSTAR":-0.0025590626,"MEAN_MOTION_DOT":-0.01264999,"MEAN_MOTION_DDOT":0.0005032224},{"OBJECT_NAME":"STARLINK-37151","OBJECT_ID":"2026-055AE","EPOCH":"2026-03-28T14:00:01.999872","MEAN_MOTION":15.99065884,"ECCENTRICITY":9.726e-5,"INCLINATION":53.1575,"RA_OF_ASC_NODE":242.7718,"ARG_OF_PERICENTER":80.1209,"MEAN_ANOMALY":58.345,"EPHEMERIS_TYPE":0,"CLASSIFICATION_TYPE":"U","NORAD_CAT_ID":68290,"ELEMENT_SET_NO":999,"REV_AT_EPOCH":267,"BSTAR":-0.0025127794,"MEAN_MOTION_DOT":-0.01249924,"MEAN_MOTION_DDOT":0.00049292553},{"OBJECT_NAME":"STRIX-6","OBJECT_ID":"2026-056A","EPOCH":"2026-03-28T04:18:35.244576","MEAN_MOTION":14.99596008,"ECCENTRICITY":0.00166334,"INCLINATION":50.2842,"RA_OF_ASC_NODE":12.5676,"ARG_OF_PERICENTER":293.6179,"MEAN_ANOMALY":66.3023,"EPHEMERIS_TYPE":0,"CLASSIFICATION_TYPE":"U","NORAD_CAT_ID":68291,"ELEMENT_SET_NO":999,"REV_AT_EPOCH":111,"BSTAR":0.00043866205,"MEAN_MOTION_DOT":5.215e-5,"MEAN_MOTION_DDOT":0},{"OBJECT_NAME":"ELECTRON R/B","OBJECT_ID":"2026-056B","EPOCH":"2026-03-28T18:10:29.739360","MEAN_MOTION":15.96782668,"ECCENTRICITY":0.0179046,"INCLINATION":50.2615,"RA_OF_ASC_NODE":4.9571,"ARG_OF_PERICENTER":282.1218,"MEAN_ANOMALY":75.9763,"EPHEMERIS_TYPE":0,"CLASSIFICATION_TYPE":"U","NORAD_CAT_ID":68292,"ELEMENT_SET_NO":999,"REV_AT_EPOCH":126,"BSTAR":0.0010369,"MEAN_MOTION_DOT":0.03009656,"MEAN_MOTION_DDOT":1.1061e-5},{"OBJECT_NAME":"ELECTRON KICK STAGE R/B","OBJECT_ID":"2026-056C","EPOCH":"2026-03-28T12:16:26.273280","MEAN_MOTION":15.39543197,"ECCENTRICITY":0.01576991,"INCLINATION":50.2932,"RA_OF_ASC_NODE":8.7355,"ARG_OF_PERICENTER":42.0968,"MEAN_ANOMALY":319.1988,"EPHEMERIS_TYPE":0,"CLASSIFICATION_TYPE":"U","NORAD_CAT_ID":68293,"ELEMENT_SET_NO":999,"REV_AT_EPOCH":120,"BSTAR":0.0017102493,"MEAN_MOTION_DOT":0.00107413,"MEAN_MOTION_DDOT":0},{"OBJECT_NAME":"STARLINK-37107","OBJECT_ID":"2026-057A","EPOCH":"2026-03-28T14:00:01.999872","MEAN_MOTION":16.02010372,"ECCENTRICITY":0.00012795,"INCLINATION":97.2816,"RA_OF_ASC_NODE":210.6758,"ARG_OF_PERICENTER":70.7521,"MEAN_ANOMALY":145.6688,"EPHEMERIS_TYPE":0,"CLASSIFICATION_TYPE":"U","NORAD_CAT_ID":68294,"ELEMENT_SET_NO":999,"REV_AT_EPOCH":219,"BSTAR":-0.0017257451,"MEAN_MOTION_DOT":-0.00978294,"MEAN_MOTION_DDOT":0.00032202301}]
